{
  "type": "FeatureCollection",
  "features": [
    {
      "type": "Feature",
      "properties": {
        "norad_id": 66909,
        "name": "SILVERSAT",
        "group": "stations",
        "lat": -21.01990866609083,
        "lon": 67.44249002116834,
        "alt_km": 408.40606652959923,
        "timestamp": "2025-12-24T05:51:18.359600+00:00",
        "meta_object_name": "SILVERSAT",
        "meta_object_id": "1998-067XV",
        "meta_epoch": "2025-12-23T06:48:27.239040",
        "meta_mean_motion": 15.53013948,
        "meta_eccentricity": 0.00038718,
        "meta_inclination": 51.6305,
        "meta_ra_of_asc_node": 89.9502,
        "meta_arg_of_pericenter": 293.696,
        "meta_mean_anomaly": 66.3623,
        "meta_ephemeris_type": 0,
        "meta_classification_type": "U",
        "meta_norad_cat_id": 66909,
        "meta_element_set_no": 999,
        "meta_rev_at_epoch": 325,
        "meta_bstar": 0.0011375182,
        "meta_mean_motion_dot": 0.00072516,
        "meta_mean_motion_ddot": 0,
        "tle_line1": "1 66909U 98067XV  25357.28364860  .00072516  00000+0  11375-2 0  9998",
        "tle_line2": "2 66909  51.6305  89.9502 0003871 293.6960  66.3623 15.53013948  3254"
      },
      "geometry": {
        "type": "Point",
        "coordinates": [
          67.44249002116834,
          -21.01990866609083
        ]
      }
    },
    {
      "type": "Feature",
      "properties": {
        "norad_id": 66910,
        "name": "1998-067XW",
        "group": "stations",
        "lat": -13.787463679681727,
        "lon": 73.93628157794775,
        "alt_km": 409.3185343564646,
        "timestamp": "2025-12-24T05:51:18.359611+00:00",
        "meta_object_name": "1998-067XW",
        "meta_object_id": "1998-067XW",
        "meta_epoch": "2025-12-23T11:23:56.481792",
        "meta_mean_motion": 15.5298943,
        "meta_eccentricity": 0.00039882,
        "meta_inclination": 51.6309,
        "meta_ra_of_asc_node": 88.9767,
        "meta_arg_of_pericenter": 265.4983,
        "meta_mean_anomaly": 94.5551,
        "meta_ephemeris_type": 0,
        "meta_classification_type": "U",
        "meta_norad_cat_id": 66910,
        "meta_element_set_no": 999,
        "meta_rev_at_epoch": 328,
        "meta_bstar": 0.00097986031,
        "meta_mean_motion_dot": 0.00062264,
        "meta_mean_motion_ddot": 0,
        "tle_line1": "1 66910U 98067XW  25357.47495928  .00062264  00000+0  97986-3 0  9993",
        "tle_line2": "2 66910  51.6309  88.9767 0003988 265.4983  94.5551 15.52989430  3286"
      },
      "geometry": {
        "type": "Point",
        "coordinates": [
          73.93628157794775,
          -13.787463679681727
        ]
      }
    },
    {
      "type": "Feature",
      "properties": {
        "norad_id": 66911,
        "name": "1998-067XX",
        "group": "stations",
        "lat": 1.6428725691276127,
        "lon": 86.40820971286318,
        "alt_km": 406.6911713415748,
        "timestamp": "2025-12-24T05:51:18.359621+00:00",
        "meta_object_name": "1998-067XX",
        "meta_object_id": "1998-067XX",
        "meta_epoch": "2025-12-23T12:51:49.426272",
        "meta_mean_motion": 15.53470318,
        "meta_eccentricity": 0.00036819,
        "meta_inclination": 51.6308,
        "meta_ra_of_asc_node": 88.6344,
        "meta_arg_of_pericenter": 272.7322,
        "meta_mean_anomaly": 87.3247,
        "meta_ephemeris_type": 0,
        "meta_classification_type": "U",
        "meta_norad_cat_id": 66911,
        "meta_element_set_no": 999,
        "meta_rev_at_epoch": 328,
        "meta_bstar": 0.0011146437,
        "meta_mean_motion_dot": 0.00072234,
        "meta_mean_motion_ddot": 0,
        "tle_line1": "1 66911U 98067XX  25357.53598873  .00072234  00000+0  11146-2 0  9995",
        "tle_line2": "2 66911  51.6308  88.6344 0003681 272.7322  87.3247 15.53470318  3285"
      },
      "geometry": {
        "type": "Point",
        "coordinates": [
          86.40820971286318,
          1.6428725691276127
        ]
      }
    },
    {
      "type": "Feature",
      "properties": {
        "norad_id": 66912,
        "name": "1998-067XY",
        "group": "stations",
        "lat": -45.62375539335081,
        "lon": 31.18116783037046,
        "alt_km": 412.04915642133983,
        "timestamp": "2025-12-24T05:51:18.359633+00:00",
        "meta_object_name": "1998-067XY",
        "meta_object_id": "1998-067XY",
        "meta_epoch": "2025-12-23T06:57:34.859520",
        "meta_mean_motion": 15.52133019,
        "meta_eccentricity": 0.00038791,
        "meta_inclination": 51.6317,
        "meta_ra_of_asc_node": 89.9922,
        "meta_arg_of_pericenter": 281.5198,
        "meta_mean_anomaly": 78.5356,
        "meta_ephemeris_type": 0,
        "meta_classification_type": "U",
        "meta_norad_cat_id": 66912,
        "meta_element_set_no": 999,
        "meta_rev_at_epoch": 324,
        "meta_bstar": 0.00084098106,
        "meta_mean_motion_dot": 0.00051669,
        "meta_mean_motion_ddot": 0,
        "tle_line1": "1 66912U 98067XY  25357.28998680  .00051669  00000+0  84098-3 0  9994",
        "tle_line2": "2 66912  51.6317  89.9922 0003879 281.5198  78.5356 15.52133019  3242"
      },
      "geometry": {
        "type": "Point",
        "coordinates": [
          31.18116783037046,
          -45.62375539335081
        ]
      }
    }
  ]
}